OBJECT_NAME,OBJECT_ID,EPOCH,MEAN_MOTION,ECCENTRICITY,INCLINATION,RA_OF_ASC_NODE,ARG_OF_PERICENTER,MEAN_ANOMALY,EPHEMERIS_TYPE,CLASSIFICATION_TYPE,NORAD_CAT_ID,ELEMENT_SET_NO,REV_AT_EPOCH,BSTAR,MEAN_MOTION_DOT,MEAN_MOTION_DDOT
TOMORROW-S7,2025-081B,2026-06-07T03:03:25.053984,14.99582784,.00023529,45.3945,28.0708,228.8448,131.2228,0,U,63631,999,6166,.15039854E-3,.1649E-4,0
STARLINK-33879,2025-083A,2026-06-06T11:45:06.338880,15.27623196,.00002713,42.9974,224.0589,180.6271,179.4580,0,U,63634,999,6364,.75807439E-3,.20685E-3,0
STARLINK-33854,2025-083B,2026-06-06T10:44:03.696864,15.27583563,.00021847,42.9997,223.7477,274.6669,85.3933,0,U,63635,999,6364,.15918323E-3,.4121E-4,0
STARLINK-33864,2025-083C,2026-06-06T11:50:39.835104,15.27592442,.00008468,42.9998,224.0925,240.7157,119.3610,0,U,63636,999,6367,.12146408E-2,.33326E-3,0
STARLINK-33832,2025-083D,2026-06-05T07:52:18.088032,15.27691856,.00031964,42.9948,229.9557,174.9237,185.1647,0,U,63637,999,6347,.88957915E-3,.24384E-3,0
STARLINK-33856,2025-083E,2026-06-07T00:00:04.000320,15.27560943,.0001533,43.0011,220.6534,269.0862,240.2958,0,U,63638,999,582,.53592573E-3,.14506E-3,0
STARLINK-33876,2025-083F,2026-06-06T11:09:57.606048,15.27606979,.00044958,42.9985,223.8697,281.7626,78.2722,0,U,63639,999,6364,.77975881E-3,.21279E-3,0
STARLINK-33859,2025-083G,2026-06-06T11:48:49.332960,15.27601774,.00017456,42.9968,224.0827,289.6855,70.3808,0,U,63640,999,6364,.78455159E-3,.21404E-3,0
STARLINK-33826,2025-083H,2026-06-06T10:51:27.684000,15.27618706,.00001394,42.9993,223.7835,274.9295,85.1541,0,U,63641,999,6364,.13601675E-2,.37401E-3,0
STARLINK-33836,2025-083J,2026-06-06T11:35:52.209888,15.27600542,.00001952,42.9993,224.0145,165.1641,194.9216,0,U,63642,999,6364,.71370222E-3,.19442E-3,0
STARLINK-33558,2025-083K,2026-06-07T00:00:04.000320,15.27552556,.00016075,43.0016,220.5712,258.8775,285.8933,0,U,63643,999,587,.58328134E-3,.1581E-3,0
STARLINK-33852,2025-083L,2026-06-06T11:34:01.426080,15.27595909,.00016965,42.9972,224.0063,270.3995,89.6663,0,U,63644,999,6367,.73196984E-3,.19945E-3,0
STARLINK-33835,2025-083M,2026-06-06T11:15:30.958848,15.27599502,.00021027,42.9991,223.8988,278.1090,81.9523,0,U,63645,999,6367,.74705516E-3,.20365E-3,0
STARLINK-33661,2025-083N,2026-06-06T10:55:09.420960,15.27610353,.00012924,42.9998,223.7966,281.2613,78.8094,0,U,63646,999,6367,.85956747E-3,.23489E-3,0
STARLINK-33729,2025-083P,2026-06-06T11:43:17.366880,15.27629203,.00021903,43.0012,224.0534,280.0911,79.9693,0,U,63647,999,6364,.113508E-2,.31153E-3,0
STARLINK-33717,2025-083Q,2026-06-05T15:52:20.417952,15.27586892,.00020143,43.0012,228.1652,284.1435,75.9192,0,U,63648,999,6352,.6305405E-3,.17133E-3,0
STARLINK-33684,2025-083R,2026-06-05T04:42:08.610336,15.27580696,.00015375,43.0014,230.6910,289.0112,71.0573,0,U,63649,999,6345,.59589809E-3,.16172E-3,0
STARLINK-33704,2025-083S,2026-06-06T11:02:33.723456,15.27606051,.00035615,43.0002,223.8357,282.2865,77.7588,0,U,63650,999,6364,.74470724E-3,.20305E-3,0
STARLINK-33705,2025-083T,2026-06-06T10:56:59.412480,15.27617290,.00001605,43.0008,223.8046,164.3339,195.7518,0,U,63651,999,6367,.75598924E-3,.20623E-3,0
STARLINK-33663,2025-083U,2026-06-06T15:28:22.547424,15.27607220,.00016332,43.0007,222.6360,275.7001,84.3664,0,U,63652,999,6367,.68850216E-3,.18748E-3,0
STARLINK-33866,2025-083V,2026-06-06T11:30:17.822016,15.27603093,.00013427,42.9993,223.9794,266.2806,93.7892,0,U,63653,999,6367,.72323584E-3,.19707E-3,0
STARLINK-33849,2025-083W,2026-06-06T11:26:37.323168,15.27632451,.00010073,42.9973,223.9583,295.2140,64.8607,0,U,63654,999,6364,-.78012737E-3,-.21701E-3,0
STARLINK-33873,2025-083X,2026-06-06T16:10:56.710272,15.27582766,.00014609,42.9973,222.8621,268.8632,91.2052,0,U,63655,999,6370,.208626E-2,.57602E-3,0
STARLINK-33772,2025-083Y,2026-06-06T11:04:24.507264,15.27602839,.00019716,42.9985,223.8422,254.5095,105.5539,0,U,63656,999,6367,.11529022E-3,.2914E-4,0
STARLINK-33789,2025-083Z,2026-06-05T11:20:58.215264,15.27591240,.00014072,42.9993,229.3237,261.9843,98.0849,0,U,63657,999,6352,.94913348E-3,.25957E-3,0
STARLINK-33822,2025-083AA,2026-06-06T11:24:47.511360,15.27592705,.00014785,42.9982,223.9473,271.1152,88.9530,0,U,63658,999,6367,.72090661E-3,.19636E-3,0
STARLINK-33771,2025-083AB,2026-06-05T01:55:21.150624,15.27643073,.00016546,42.9977,235.0703,211.2457,148.8297,0,U,63659,999,6342,.73605767E-3,.20087E-3,0
STARLINK-33810,2025-083AC,2026-06-06T15:22:49.366560,15.27609802,.00016466,43.0012,222.6095,277.1552,82.9112,0,U,63660,999,6370,.78550821E-3,.21436E-3,0
STARLINK-33823,2025-083AD,2026-06-06T11:19:12.975744,15.27602786,.00023919,42.9994,223.9259,282.3183,77.7400,0,U,63661,999,6367,.70618355E-3,.19235E-3,0
TIANLIAN 2-05,2025-084A,2026-06-07T01:32:50.050752,1.00271781,.0003512,4.4779,279.9503,145.3561,233.7856,0,U,63662,999,428,0,.136E-5,0
