TOMORROW-S7             
1 63631U 25081B   26158.12737331  .00001649  00000+0  15040-3 0  9996
2 63631  45.3945  28.0708 0002352 228.8448 131.2228 14.99582784 61669
STARLINK-33879          
1 63634U 25083A   26157.48965670  .00020685  00000+0  75807-3 0  9996
2 63634  42.9974 224.0589 0000271 180.6271 179.4580 15.27623196 63649
STARLINK-33854          
1 63635U 25083B   26157.44726501  .00004121  00000+0  15918-3 0  9995
2 63635  42.9997 223.7477 0002184 274.6669  85.3933 15.27583563 63647
STARLINK-33864          
1 63636U 25083C   26157.49351661  .00033326  00000+0  12146-2 0  9990
2 63636  42.9998 224.0925 0000846 240.7157 119.3610 15.27592442 63679
STARLINK-33832          
1 63637U 25083D   26156.32798713  .00024384  00000+0  88958-3 0  9994
2 63637  42.9948 229.9557 0003196 174.9237 185.1647 15.27691856 63476
STARLINK-33856          
1 63638U 25083E   26158.00004630  .00014506  00000+0  53593-3 0  9992
2 63638  43.0011 220.6534 0001533 269.0862 240.2958 15.27560943  5821
STARLINK-33876          
1 63639U 25083F   26157.46525007  .00021279  00000+0  77976-3 0  9994
2 63639  42.9985 223.8697 0004495 281.7626  78.2722 15.27606979 63646
STARLINK-33859          
1 63640U 25083G   26157.49223765  .00021404  00000+0  78455-3 0  9998
2 63640  42.9968 224.0827 0001745 289.6855  70.3808 15.27601774 63649
STARLINK-33826          
1 63641U 25083H   26157.45240375  .00037401  00000+0  13602-2 0  9997
2 63641  42.9993 223.7835 0000139 274.9295  85.1541 15.27618706 63645
STARLINK-33836          
1 63642U 25083J   26157.48324317  .00019442  00000+0  71370-3 0  9992
2 63642  42.9993 224.0145 0000195 165.1641 194.9216 15.27600542 63649
STARLINK-33558          
1 63643U 25083K   26158.00004630  .00015810  00000+0  58328-3 0  9998
2 63643  43.0016 220.5712 0001607 258.8775 285.8933 15.27552556  5874
STARLINK-33852          
1 63644U 25083L   26157.48196095  .00019945  00000+0  73197-3 0  9991
2 63644  42.9972 224.0063 0001696 270.3995  89.6663 15.27595909 63674
STARLINK-33835          
1 63645U 25083M   26157.46910832  .00020365  00000+0  74706-3 0  9998
2 63645  42.9991 223.8988 0002102 278.1090  81.9523 15.27599502 63677
STARLINK-33661          
1 63646U 25083N   26157.45497015  .00023489  00000+0  85957-3 0  9991
2 63646  42.9998 223.7966 0001292 281.2613  78.8094 15.27610353 63671
STARLINK-33729          
1 63647U 25083P   26157.48839545  .00031153  00000+0  11351-2 0  9996
2 63647  43.0012 224.0534 0002190 280.0911  79.9693 15.27629203 63640
STARLINK-33717          
1 63648U 25083Q   26156.66134743  .00017133  00000+0  63054-3 0  9994
2 63648  43.0012 228.1652 0002014 284.1435  75.9192 15.27586892 63521
STARLINK-33684          
1 63649U 25083R   26156.19593299  .00016172  00000+0  59590-3 0  9990
2 63649  43.0014 230.6910 0001537 289.0112  71.0573 15.27580696 63452
STARLINK-33704          
1 63650U 25083S   26157.46011254  .00020305  00000+0  74471-3 0  9997
2 63650  43.0002 223.8357 0003561 282.2865  77.7588 15.27606051 63643
STARLINK-33705          
1 63651U 25083T   26157.45624320  .00020623  00000+0  75599-3 0  9996
2 63651  43.0008 223.8046 0000160 164.3339 195.7518 15.27617290 63677
STARLINK-33663          
1 63652U 25083U   26157.64470541  .00018748  00000+0  68850-3 0  9999
2 63652  43.0007 222.6360 0001633 275.7001  84.3664 15.27607220 63679
STARLINK-33866          
1 63653U 25083V   26157.47937294  .00019707  00000+0  72324-3 0  9991
2 63653  42.9993 223.9794 0001342 266.2806  93.7892 15.27603093 63673
STARLINK-33849          
1 63654U 25083W   26157.47682087 -.00021701  00000+0 -78013-3 0  9999
2 63654  42.9973 223.9583 0001007 295.2140  64.8607 15.27632451 63649
STARLINK-33873          
1 63655U 25083X   26157.67426748  .00057602  00000+0  20863-2 0  9998
2 63655  42.9973 222.8621 0001460 268.8632  91.2052 15.27582766 63704
STARLINK-33772          
1 63656U 25083Y   26157.46139476  .00002914  00000+0  11529-3 0  9991
2 63656  42.9985 223.8422 0001971 254.5095 105.5539 15.27602839 63679
STARLINK-33789          
1 63657U 25083Z   26156.47289601  .00025957  00000+0  94913-3 0  9998
2 63657  42.9993 229.3237 0001407 261.9843  98.0849 15.27591240 63528
STARLINK-33822          
1 63658U 25083AA  26157.47554990  .00019636  00000+0  72091-3 0  9996
2 63658  42.9982 223.9473 0001478 271.1152  88.9530 15.27592705 63671
STARLINK-33771          
1 63659U 25083AB  26156.08010591  .00020087  00000+0  73606-3 0  9992
2 63659  42.9977 235.0703 0001654 211.2457 148.8297 15.27643073 63429
STARLINK-33810          
1 63660U 25083AC  26157.64084915  .00021436  00000+0  78551-3 0  9991
2 63660  43.0012 222.6095 0001646 277.1552  82.9112 15.27609802 63704
STARLINK-33823          
1 63661U 25083AD  26157.47167796  .00019235  00000+0  70618-3 0  9992
2 63661  42.9994 223.9259 0002391 282.3183  77.7400 15.27602786 63676
TIANLIAN 2-05           
1 63662U 25084A   26158.06446818  .00000136  00000+0  00000+0 0  9999
2 63662   4.4779 279.9503 0003512 145.3561 233.7856  1.00271781  4282
